[{"OBJECT_NAME":"ONEWEB-0438","OBJECT_ID":"2022-012N","EPOCH":"2026-06-06T04:24:15.927552","MEAN_MOTION":13.10376168,"ECCENTRICITY":0.0002015,"INCLINATION":87.8843,"RA_OF_ASC_NODE":38.4726,"ARG_OF_PERICENTER":81.6693,"MEAN_ANOMALY":278.4663,"EPHEMERIS_TYPE":0,"CLASSIFICATION_TYPE":"U","NORAD_CAT_ID":51634,"ELEMENT_SET_NO":999,"REV_AT_EPOCH":20790,"BSTAR":0.00026323000000000004,"MEAN_MOTION_DOT":1.05e-06,"MEAN_MOTION_DDOT":0.0},{"OBJECT_NAME":"ONEWEB-0439","OBJECT_ID":"2022-012P","EPOCH":"2026-06-06T09:58:54.719040","MEAN_MOTION":13.10375456,"ECCENTRICITY":0.0001828,"INCLINATION":87.8844,"RA_OF_ASC_NODE":38.4135,"ARG_OF_PERICENTER":79.2304,"MEAN_ANOMALY":280.9029,"EPHEMERIS_TYPE":0,"CLASSIFICATION_TYPE":"U","NORAD_CAT_ID":51635,"ELEMENT_SET_NO":999,"REV_AT_EPOCH":20791,"BSTAR":0.00053071,"MEAN_MOTION_DOT":1.98e-06,"MEAN_MOTION_DDOT":0.0},{"OBJECT_NAME":"ONEWEB-0442","OBJECT_ID":"2022-012Q","EPOCH":"2026-06-06T13:45:55.623744","MEAN_MOTION":13.17648465,"ECCENTRICITY":0.0002421,"INCLINATION":87.9142,"RA_OF_ASC_NODE":7.99,"ARG_OF_PERICENTER":88.1603,"MEAN_ANOMALY":271.9806,"EPHEMERIS_TYPE":0,"CLASSIFICATION_TYPE":"U","NORAD_CAT_ID":51636,"ELEMENT_SET_NO":999,"REV_AT_EPOCH":21227,"BSTAR":3.884e-05,"MEAN_MOTION_DOT":2.8e-07,"MEAN_MOTION_DDOT":0.0},{"OBJECT_NAME":"ONEWEB-0443","OBJECT_ID":"2022-012R","EPOCH":"2026-06-06T19:41:54.464928","MEAN_MOTION":13.17648845,"ECCENTRICITY":0.0001925,"INCLINATION":87.9142,"RA_OF_ASC_NODE":7.9418,"ARG_OF_PERICENTER":75.7806,"MEAN_ANOMALY":284.354,"EPHEMERIS_TYPE":0,"CLASSIFICATION_TYPE":"U","NORAD_CAT_ID":51637,"ELEMENT_SET_NO":999,"REV_AT_EPOCH":21235,"BSTAR":3.0469000000000004e-06,"MEAN_MOTION_DOT":1.4e-07,"MEAN_MOTION_DDOT":0.0},{"OBJECT_NAME":"ONEWEB-0444","OBJECT_ID":"2022-012S","EPOCH":"2026-06-06T09:44:33.540000","MEAN_MOTION":13.10376411,"ECCENTRICITY":0.000191,"INCLINATION":87.8841,"RA_OF_ASC_NODE":38.4147,"ARG_OF_PERICENTER":76.7361,"MEAN_ANOMALY":283.398,"EPHEMERIS_TYPE":0,"CLASSIFICATION_TYPE":"U","NORAD_CAT_ID":51638,"ELEMENT_SET_NO":999,"REV_AT_EPOCH":20792,"BSTAR":-0.0008264,"MEAN_MOTION_DOT":-2.76e-06,"MEAN_MOTION_DDOT":0.0},{"OBJECT_NAME":"ONEWEB-0445","OBJECT_ID":"2022-012T","EPOCH":"2026-06-06T02:55:50.054304","MEAN_MOTION":13.10372953,"ECCENTRICITY":0.0001719,"INCLINATION":87.885,"RA_OF_ASC_NODE":38.4581,"ARG_OF_PERICENTER":87.4315,"MEAN_ANOMALY":272.7009,"EPHEMERIS_TYPE":0,"CLASSIFICATION_TYPE":"U","NORAD_CAT_ID":51639,"ELEMENT_SET_NO":999,"REV_AT_EPOCH":20789,"BSTAR":0.001999,"MEAN_MOTION_DOT":7.11e-06,"MEAN_MOTION_DDOT":0.0},{"OBJECT_NAME":"ONEWEB-0446","OBJECT_ID":"2022-012U","EPOCH":"2026-06-06T09:42:09.478368","MEAN_MOTION":13.10376161,"ECCENTRICITY":0.0001796,"INCLINATION":87.8849,"RA_OF_ASC_NODE":38.4309,"ARG_OF_PERICENTER":87.9437,"MEAN_ANOMALY":272.1896,"EPHEMERIS_TYPE":0,"CLASSIFICATION_TYPE":"U","NORAD_CAT_ID":51640,"ELEMENT_SET_NO":999,"REV_AT_EPOCH":20791,"BSTAR":-0.0013148,"MEAN_MOTION_DOT":-4.46e-06,"MEAN_MOTION_DDOT":0.0},{"OBJECT_NAME":"ONEWEB-0448","OBJECT_ID":"2022-012V","EPOCH":"2026-06-06T09:49:21.077472","MEAN_MOTION":13.1037562,"ECCENTRICITY":0.000178,"INCLINATION":87.8845,"RA_OF_ASC_NODE":38.4274,"ARG_OF_PERICENTER":78.0993,"MEAN_ANOMALY":282.0334,"EPHEMERIS_TYPE":0,"CLASSIFICATION_TYPE":"U","NORAD_CAT_ID":51641,"ELEMENT_SET_NO":999,"REV_AT_EPOCH":20788,"BSTAR":-1.0042e-05,"MEAN_MOTION_DOT":9e-08,"MEAN_MOTION_DDOT":0.0},{"OBJECT_NAME":"ONEWEB-0449","OBJECT_ID":"2022-012W","EPOCH":"2026-06-06T09:56:31.432416","MEAN_MOTION":13.10374997,"ECCENTRICITY":0.0002284,"INCLINATION":87.8873,"RA_OF_ASC_NODE":38.4101,"ARG_OF_PERICENTER":78.2499,"MEAN_ANOMALY":281.8885,"EPHEMERIS_TYPE":0,"CLASSIFICATION_TYPE":"U","NORAD_CAT_ID":51642,"ELEMENT_SET_NO":999,"REV_AT_EPOCH":20789,"BSTAR":0.000725,"MEAN_MOTION_DOT":2.66e-06,"MEAN_MOTION_DDOT":0.0},{"OBJECT_NAME":"ONEWEB-0451","OBJECT_ID":"2022-012X","EPOCH":"2026-06-06T13:52:00.653376","MEAN_MOTION":13.17648824,"ECCENTRICITY":0.0002045,"INCLINATION":87.9153,"RA_OF_ASC_NODE":7.9527,"ARG_OF_PERICENTER":84.3165,"MEAN_ANOMALY":275.8199,"EPHEMERIS_TYPE":0,"CLASSIFICATION_TYPE":"U","NORAD_CAT_ID":51643,"ELEMENT_SET_NO":999,"REV_AT_EPOCH":21226,"BSTAR":-0.00031774,"MEAN_MOTION_DOT":-1.1e-06,"MEAN_MOTION_DDOT":0.0},{"OBJECT_NAME":"ONEWEB-0452","OBJECT_ID":"2022-012Y","EPOCH":"2026-06-06T13:49:33.764736","MEAN_MOTION":13.17650097,"ECCENTRICITY":0.0001995,"INCLINATION":87.914,"RA_OF_ASC_NODE":7.9912,"ARG_OF_PERICENTER":76.7388,"MEAN_ANOMALY":283.3965,"EPHEMERIS_TYPE":0,"CLASSIFICATION_TYPE":"U","NORAD_CAT_ID":51644,"ELEMENT_SET_NO":999,"REV_AT_EPOCH":21227,"BSTAR":-2.9939e-05,"MEAN_MOTION_DOT":1e-08,"MEAN_MOTION_DDOT":0.0},{"OBJECT_NAME":"ONEWEB-0456","OBJECT_ID":"2022-012AA","EPOCH":"2026-06-06T10:10:50.562048","MEAN_MOTION":13.10375042,"ECCENTRICITY":0.0001702,"INCLINATION":87.8847,"RA_OF_ASC_NODE":38.3966,"ARG_OF_PERICENTER":74.4216,"MEAN_ANOMALY":285.7099,"EPHEMERIS_TYPE":0,"CLASSIFICATION_TYPE":"U","NORAD_CAT_ID":51646,"ELEMENT_SET_NO":999,"REV_AT_EPOCH":20793,"BSTAR":0.00033507,"MEAN_MOTION_DOT":1.3e-06,"MEAN_MOTION_DDOT":0.0},{"OBJECT_NAME":"ONEWEB-0457","OBJECT_ID":"2022-012AB","EPOCH":"2026-06-06T15:07:01.804800","MEAN_MOTION":13.10374104,"ECCENTRICITY":0.000203,"INCLINATION":87.8847,"RA_OF_ASC_NODE":38.374,"ARG_OF_PERICENTER":91.8794,"MEAN_ANOMALY":268.2566,"EPHEMERIS_TYPE":0,"CLASSIFICATION_TYPE":"U","NORAD_CAT_ID":51647,"ELEMENT_SET_NO":999,"REV_AT_EPOCH":20796,"BSTAR":-0.0011975,"MEAN_MOTION_DOT":-4.05e-06,"MEAN_MOTION_DDOT":0.0},{"OBJECT_NAME":"ONEWEB-0458","OBJECT_ID":"2022-012AC","EPOCH":"2026-06-06T13:48:23.932800","MEAN_MOTION":13.10394969,"ECCENTRICITY":0.0002072,"INCLINATION":87.8846,"RA_OF_ASC_NODE":38.3719,"ARG_OF_PERICENTER":77.4905,"MEAN_ANOMALY":282.6454,"EPHEMERIS_TYPE":0,"CLASSIFICATION_TYPE":"U","NORAD_CAT_ID":51648,"ELEMENT_SET_NO":999,"REV_AT_EPOCH":20791,"BSTAR":0.0013483,"MEAN_MOTION_DOT":4.84e-06,"MEAN_MOTION_DDOT":0.0},{"OBJECT_NAME":"ONEWEB-0461","OBJECT_ID":"2022-012AD","EPOCH":"2026-06-06T16:10:29.555616","MEAN_MOTION":13.17648146,"ECCENTRICITY":0.0001865,"INCLINATION":87.9153,"RA_OF_ASC_NODE":7.9477,"ARG_OF_PERICENTER":90.6287,"MEAN_ANOMALY":269.5058,"EPHEMERIS_TYPE":0,"CLASSIFICATION_TYPE":"U","NORAD_CAT_ID":51649,"ELEMENT_SET_NO":999,"REV_AT_EPOCH":21250,"BSTAR":0.00030274,"MEAN_MOTION_DOT":1.3e-06,"MEAN_MOTION_DDOT":0.0},{"OBJECT_NAME":"ONEWEB-0463","OBJECT_ID":"2022-012AE","EPOCH":"2026-06-06T13:54:26.068896","MEAN_MOTION":13.17648849,"ECCENTRICITY":0.0001892,"INCLINATION":87.9141,"RA_OF_ASC_NODE":7.9904,"ARG_OF_PERICENTER":93.2329,"MEAN_ANOMALY":266.9019,"EPHEMERIS_TYPE":0,"CLASSIFICATION_TYPE":"U","NORAD_CAT_ID":51650,"ELEMENT_SET_NO":999,"REV_AT_EPOCH":21227,"BSTAR":-0.00046946,"MEAN_MOTION_DOT":-1.69e-06,"MEAN_MOTION_DDOT":0.0},{"OBJECT_NAME":"ONEWEB-0464","OBJECT_ID":"2022-012AF","EPOCH":"2026-06-06T10:03:41.912640","MEAN_MOTION":13.10374917,"ECCENTRICITY":0.0001788,"INCLINATION":87.8833,"RA_OF_ASC_NODE":38.426,"ARG_OF_PERICENTER":72.1497,"MEAN_ANOMALY":287.9825,"EPHEMERIS_TYPE":0,"CLASSIFICATION_TYPE":"U","NORAD_CAT_ID":51651,"ELEMENT_SET_NO":999,"REV_AT_EPOCH":20791,"BSTAR":0.00072931,"MEAN_MOTION_DOT":2.67e-06,"MEAN_MOTION_DDOT":0.0}]